{
  "type": "FeatureCollection",
  "features": [
    {
      "type": "Feature",
      "properties": {
        "norad_id": 66330,
        "name": "STARLINK-35512",
        "group": "last-30-days",
        "lat": -24.64967039357204,
        "lon": 4.747415851114322,
        "alt_km": 446.5482713461324,
        "timestamp": "2025-12-04T07:39:34.997678+00:00",
        "meta_object_name": "STARLINK-35512",
        "meta_object_id": "2025-253M",
        "meta_epoch": "2025-12-03T22:00:03.000096",
        "meta_mean_motion": 15.40737673,
        "meta_eccentricity": 0.00011126,
        "meta_inclination": 43.0009,
        "meta_ra_of_asc_node": 36.5672,
        "meta_arg_of_pericenter": 245.0251,
        "meta_mean_anomaly": 2.5131,
        "meta_ephemeris_type": 0,
        "meta_classification_type": "U",
        "meta_norad_cat_id": 66330,
        "meta_element_set_no": 999,
        "meta_rev_at_epoch": 551,
        "meta_bstar": -0.0049878066,
        "meta_mean_motion_dot": -0.00203449,
        "meta_mean_motion_ddot": 0,
        "tle_line1": "1 66330U 25253M   25337.91670139 -.00203449  00000+0 -49878-2 0  9992",
        "tle_line2": "2 66330  43.0009  36.5672 0001112 245.0251   2.5131 15.40737673  5515"
      },
      "geometry": {
        "type": "Point",
        "coordinates": [
          4.747415851114322,
          -24.64967039357204
        ]
      }
    },
    {
      "type": "Feature",
      "properties": {
        "norad_id": 66331,
        "name": "STARLINK-35257",
        "group": "last-30-days",
        "lat": 42.129567440156755,
        "lon": 137.81965311375444,
        "alt_km": 408.87027905923696,
        "timestamp": "2025-12-04T07:39:34.997688+00:00",
        "meta_object_name": "STARLINK-35257",
        "meta_object_id": "2025-253N",
        "meta_epoch": "2025-12-03T12:40:46.235424",
        "meta_mean_motion": 15.50612497,
        "meta_eccentricity": 0.00017622,
        "meta_inclination": 42.9995,
        "meta_ra_of_asc_node": 38.5379,
        "meta_arg_of_pericenter": 289.6299,
        "meta_mean_anomaly": 70.4371,
        "meta_ephemeris_type": 0,
        "meta_classification_type": "U",
        "meta_norad_cat_id": 66331,
        "meta_element_set_no": 999,
        "meta_rev_at_epoch": 550,
        "meta_bstar": 0.0018759457,
        "meta_mean_motion_dot": 0.00111424,
        "meta_mean_motion_ddot": 0,
        "tle_line1": "1 66331U 25253N   25337.52831291  .00111424  00000+0  18759-2 0  9991",
        "tle_line2": "2 66331  42.9995  38.5379 0001762 289.6299  70.4371 15.50612497  5507"
      },
      "geometry": {
        "type": "Point",
        "coordinates": [
          137.81965311375444,
          42.129567440156755
        ]
      }
    },
    {
      "type": "Feature",
      "properties": {
        "norad_id": 66332,
        "name": "STARLINK-35322",
        "group": "last-30-days",
        "lat": 42.928250277075996,
        "lon": 127.36503688031864,
        "alt_km": 407.4214591461705,
        "timestamp": "2025-12-04T07:39:34.997698+00:00",
        "meta_object_name": "STARLINK-35322",
        "meta_object_id": "2025-253P",
        "meta_epoch": "2025-12-02T05:48:04.239936",
        "meta_mean_motion": 15.50671276,
        "meta_eccentricity": 9.86e-05,
        "meta_inclination": 43.0002,
        "meta_ra_of_asc_node": 46.0856,
        "meta_arg_of_pericenter": 282.8379,
        "meta_mean_anomaly": 77.2371,
        "meta_ephemeris_type": 0,
        "meta_classification_type": "U",
        "meta_norad_cat_id": 66332,
        "meta_element_set_no": 999,
        "meta_rev_at_epoch": 530,
        "meta_bstar": 0.001523,
        "meta_mean_motion_dot": 0.00090339,
        "meta_mean_motion_ddot": 0,
        "tle_line1": "1 66332U 25253P   25336.24171574  .00090339  00000+0  15230-2 0  9993",
        "tle_line2": "2 66332  43.0002  46.0856 0000986 282.8379  77.2371 15.50671276  5307"
      },
      "geometry": {
        "type": "Point",
        "coordinates": [
          127.36503688031864,
          42.928250277075996
        ]
      }
    },
    {
      "type": "Feature",
      "properties": {
        "norad_id": 66333,
        "name": "STARLINK-35400",
        "group": "last-30-days",
        "lat": 42.37078003492867,
        "lon": 135.68152361774645,
        "alt_km": 407.93261261234784,
        "timestamp": "2025-12-04T07:39:34.997708+00:00",
        "meta_object_name": "STARLINK-35400",
        "meta_object_id": "2025-253Q",
        "meta_epoch": "2025-12-03T04:57:28.692576",
        "meta_mean_motion": 15.5061405,
        "meta_eccentricity": 7.59e-05,
        "meta_inclination": 42.9978,
        "meta_ra_of_asc_node": 40.4243,
        "meta_arg_of_pericenter": 264.7764,
        "meta_mean_anomaly": 95.3009,
        "meta_ephemeris_type": 0,
        "meta_classification_type": "U",
        "meta_norad_cat_id": 66333,
        "meta_element_set_no": 999,
        "meta_rev_at_epoch": 545,
        "meta_bstar": 0.0019637,
        "meta_mean_motion_dot": 0.00116738,
        "meta_mean_motion_ddot": 0,
        "tle_line1": "1 66333U 25253Q   25337.20658209  .00116738  00000+0  19637-2 0  9993",
        "tle_line2": "2 66333  42.9978  40.4243 0000759 264.7764  95.3009 15.50614050  5453"
      },
      "geometry": {
        "type": "Point",
        "coordinates": [
          135.68152361774645,
          42.37078003492867
        ]
      }
    },
    {
      "type": "Feature",
      "properties": {
        "norad_id": 66334,
        "name": "STARLINK-35407",
        "group": "last-30-days",
        "lat": 42.871618979186856,
        "lon": 128.90542585941736,
        "alt_km": 407.36553023587203,
        "timestamp": "2025-12-04T07:39:34.997718+00:00",
        "meta_object_name": "STARLINK-35407",
        "meta_object_id": "2025-253R",
        "meta_epoch": "2025-12-02T05:47:54.704832",
        "meta_mean_motion": 15.50606846,
        "meta_eccentricity": 0.000182,
        "meta_inclination": 43.0002,
        "meta_ra_of_asc_node": 46.0853,
        "meta_arg_of_pericenter": 277.7851,
        "meta_mean_anomaly": 82.2803,
        "meta_ephemeris_type": 0,
        "meta_classification_type": "U",
        "meta_norad_cat_id": 66334,
        "meta_element_set_no": 999,
        "meta_rev_at_epoch": 530,
        "meta_bstar": 0.0026112,
        "meta_mean_motion_dot": 0.00156096,
        "meta_mean_motion_ddot": 0,
        "tle_line1": "1 66334U 25253R   25336.24160538  .00156096  00000+0  26112-2 0  9997",
        "tle_line2": "2 66334  43.0002  46.0853 0001820 277.7851  82.2803 15.50606846  5309"
      },
      "geometry": {
        "type": "Point",
        "coordinates": [
          128.90542585941736,
          42.871618979186856
        ]
      }
    },
    {
      "type": "Feature",
      "properties": {
        "norad_id": 66335,
        "name": "STARLINK-35417",
        "group": "last-30-days",
        "lat": -41.18878204812384,
        "lon": -35.556604454167086,
        "alt_km": 446.54125522572576,
        "timestamp": "2025-12-04T07:39:34.997727+00:00",
        "meta_object_name": "STARLINK-35417",
        "meta_object_id": "2025-253S",
        "meta_epoch": "2025-12-03T22:00:03.000096",
        "meta_mean_motion": 15.40754518,
        "meta_eccentricity": 0.00014971,
        "meta_inclination": 43.001,
        "meta_ra_of_asc_node": 36.6557,
        "meta_arg_of_pericenter": 263.0818,
        "meta_mean_anomaly": 307.0643,
        "meta_ephemeris_type": 0,
        "meta_classification_type": "U",
        "meta_norad_cat_id": 66335,
        "meta_element_set_no": 999,
        "meta_rev_at_epoch": 551,
        "meta_bstar": -0.00342875,
        "meta_mean_motion_dot": -0.0014117,
        "meta_mean_motion_ddot": 0,
        "tle_line1": "1 66335U 25253S   25337.91670139 -.00141170  00000+0 -34287-2 0  9997",
        "tle_line2": "2 66335  43.0010  36.6557 0001497 263.0818 307.0643 15.40754518  5518"
      },
      "geometry": {
        "type": "Point",
        "coordinates": [
          -35.556604454167086,
          -41.18878204812384
        ]
      }
    },
    {
      "type": "Feature",
      "properties": {
        "norad_id": 66336,
        "name": "STARLINK-35404",
        "group": "last-30-days",
        "lat": 41.77816434963858,
        "lon": 140.39979589479375,
        "alt_km": 408.3175078626773,
        "timestamp": "2025-12-04T07:39:34.997737+00:00",
        "meta_object_name": "STARLINK-35404",
        "meta_object_id": "2025-253T",
        "meta_epoch": "2025-12-03T12:40:16.785984",
        "meta_mean_motion": 15.50633101,
        "meta_eccentricity": 8.71e-05,
        "meta_inclination": 42.9975,
        "meta_ra_of_asc_node": 38.5345,
        "meta_arg_of_pericenter": 265.211,
        "meta_mean_anomaly": 94.865,
        "meta_ephemeris_type": 0,
        "meta_classification_type": "U",
        "meta_norad_cat_id": 66336,
        "meta_element_set_no": 999,
        "meta_rev_at_epoch": 550,
        "meta_bstar": 0.0017646328,
        "meta_mean_motion_dot": 0.00104778,
        "meta_mean_motion_ddot": 0,
        "tle_line1": "1 66336U 25253T   25337.52797206  .00104778  00000+0  17646-2 0  9991",
        "tle_line2": "2 66336  42.9975  38.5345 0000871 265.2110  94.8650 15.50633101  5500"
      },
      "geometry": {
        "type": "Point",
        "coordinates": [
          140.39979589479375,
          41.77816434963858
        ]
      }
    }
  ]
}